CZ-4B R/B               
1 28059U 03049C   18347.92134514  .00000021  00000-0  16850-4 0  9999
2 28059  98.5055 247.8025 0050685  25.5338  34.5742 14.52546585802769
CZ-2C R/B               
1 28222U 04012C   18347.90191878  .00000565  00000-0  37941-4 0  9993
2 28222  97.6005 301.9814 0049012 117.7575 305.9947 15.09908248802755
SL-16 R/B               
1 28353U 04021B   18348.49315993 -.00000121  00000-0 -38335-4 0  9997
2 28353  71.0002  14.8428 0002763  95.9804 264.1633 14.14209520749253
CZ-2C R/B               
1 28480U 04046B   18347.80172809 -.00000007  00000-0  12377-4 0  9996
2 28480  98.1585  53.0826 0142946  57.0475  51.9993 14.25688278731815
ARIANE 5 R/B            
1 28499U 04049H   18347.89436748  .00000030  00000-0  11248-4 0  9994
2 28499  98.0560  78.1760 0090967 255.7315 220.1427 14.79936882754517
CZ-2D R/B               
1 28738U 05024B   18348.51943510  .00000265  00000-0  19287-4 0  9995
2 28738  97.4356  17.7329 0010502 288.4389  71.5699 15.11680675738187
SUZAKU (ASTRO-EII)      
1 28773U 05025A   18348.49132329  .00000758  00000-0  33258-4 0  9991
2 28773  31.3838 357.1664 0004527  65.4819 294.6300 15.16828870740199
ALOS (DAICHI)           
1 28931U 06002A   18348.50472428  .00000157  00000-0  39415-4 0  9996
2 28931  97.8169 352.5686 0002448  51.7721 308.3701 14.62560080687163
H-2A R/B                
1 28932U 06002B   18348.46774777  .00000176  00000-0  22682-4 0  9993
2 28932  98.2556 299.8125 0088541 325.6351 143.5395 14.91857152699094
AKARI (ASTRO-F)         
1 28939U 06005A   18347.80303901  .00001720  00000-0  51033-4 0  9995
2 28939  98.1913 251.9736 0101032  91.7145 269.5669 15.31624449696385
RESURS-DK 1             
1 29228U 06021A   18348.56452004  .00000059  00000-0  11826-4 0  9998
2 29228  69.9341 150.2504 0007314 243.4034 116.6378 15.02386208690001
GENESIS 1               
1 29252U 06029A   18347.93811725  .00000255  00000-0  22746-4 0  9993
2 29252  64.5040 305.1915 0051112 271.6301  87.8968 15.17518951684394
CZ-4B R/B               
1 29507U 06046C   18348.52338275  .00000901  00000-0  75152-4 0  9992
2 29507  97.7750   1.3397 0046829 214.3836 145.4355 15.00368646662807
CZ-2C R/B               
1 31114U 07010B   18347.73325599  .00000022  00000-0  28799-4 0  9997
2 31114  98.3358 225.3237 0060857  73.8149 286.9714 14.19283093604760
COSMO-SKYMED 1          
1 31598U 07023A   18348.52408798 -.00000834  00000-0 -98187-4 0  9999
2 31598  97.8850 169.5387 0001364  78.2412 281.9007 14.82147369623229
GENESIS 2               
1 31789U 07028A   18348.45014544  .00000350  00000-0  28009-4 0  9997
2 31789  64.5037 343.5275 0036819 309.8409  49.9475 15.16748189631585
COSMOS 2428             
1 31792U 07029A   18348.44498593 -.00000193  00000-0 -78610-4 0  9991
2 31792  70.9644 348.8680 0009317 188.3806 171.7161 14.12545738591059
SL-16 R/B               
1 31793U 07029B   18347.93190916  .00000138  00000-0  97056-4 0  9995
2 31793  70.9749 324.8928 0001981 274.1999 151.4960 14.14404057591705
KORONAS-FOTON           
1 33504U 09003A   18347.70534378  .00000059  00000-0  13820-5 0  9990
2 33504  82.4435  51.6745 0019967  31.9990 328.2450 15.15303093543921
H-2A R/B                
1 38341U 12025E   18348.21393441  .00000140  00000-0  24002-4 0  9997
2 38341  98.4322 100.1797 0055324 203.4059 156.4635 14.83826888355702
CUSAT 2 & FALCON 9 R/B  
1 39271U 13055G   18347.83451680  .00003475  00000-0  85205-4 0  9997
2 39271  80.9666 138.1078 0608478  23.1517 339.5875 14.43275489271039
ALOS-2                  
1 39766U 14029A   18348.57393772 -.00000191  00000-0 -18727-4 0  9996
2 39766  97.9228  83.0815 0001394  89.5165 270.6211 14.79469262246243
SL-27 R/B               
1 40354U 14084B   18348.49053273  .00000907  00000-0  23935-4 0  9992
2 40354  74.7392  87.2196 0038707 196.5121 163.4834 15.39413106223732
ASTRO-H (HITOMI)        
1 41337U 16012A   18348.22920771  .00000226  00000-0  11454-4 0  9991
2 41337  31.0055 264.3539 0012326  24.1154 336.0056 14.98531260154740
TIANGONG-2              
1 41765U 16057A   18348.40938966  .00004021  00000-0  52530-4 0  9997
2 41765  42.7859 348.2794 0006329  60.9779  83.5422 15.60212919128163
SHENZHOU-11 MODULE      
1 41868U 16061G   18347.80592565  .00011612  00000-0  76385-4 0  9998
2 41868  42.7943 300.7154 0003400 198.2949 243.1268 15.75677442118584
